LYNK TOWER 6            
1 59123U 24043AB  26068.89488777  .00011440  00000+0  40142-3 0  9996
2 59123  97.5426 204.1954 0009749 232.0253 128.0107 15.29548678111845
STARLINK-36467          
1 67348U 26003Q   26068.50439086  .00026934  00000+0  98457-3 0  9995
2 67348  43.0012 228.2780 0001387 242.6137 117.4574 15.27584661  8791
